[{"OBJECT_NAME":"GEESAT-2 03","OBJECT_ID":"2024-023C","EPOCH":"2026-03-09T23:27:51.195168","MEAN_MOTION":14.9659792,"ECCENTRICITY":0.00063134,"INCLINATION":50.0004,"RA_OF_ASC_NODE":73.5934,"ARG_OF_PERICENTER":3.6102,"MEAN_ANOMALY":356.4887,"EPHEMERIS_TYPE":0,"CLASSIFICATION_TYPE":"U","NORAD_CAT_ID":58907,"ELEMENT_SET_NO":999,"REV_AT_EPOCH":11446,"BSTAR":0.00027230842,"MEAN_MOTION_DOT":2.885e-5,"MEAN_MOTION_DDOT":0},{"OBJECT_NAME":"SITRO-AIS 24","OBJECT_ID":"2024-199G","EPOCH":"2026-03-09T22:55:13.311552","MEAN_MOTION":14.95574575,"ECCENTRICITY":0.00134035,"INCLINATION":97.3325,"RA_OF_ASC_NODE":273.3822,"ARG_OF_PERICENTER":42.6191,"MEAN_ANOMALY":317.6069,"EPHEMERIS_TYPE":0,"CLASSIFICATION_TYPE":"U","NORAD_CAT_ID":61741,"ELEMENT_SET_NO":999,"REV_AT_EPOCH":11705,"BSTAR":0.00037285708,"MEAN_MOTION_DOT":4.091e-5,"MEAN_MOTION_DDOT":0}]
